[{"OBJECT_NAME":"STARLINK-30512","OBJECT_ID":"2023-151N","EPOCH":"2026-03-09T22:00:01.999584","MEAN_MOTION":15.27542701,"ECCENTRICITY":0.00014616,"INCLINATION":43.0006,"RA_OF_ASC_NODE":334.5386,"ARG_OF_PERICENTER":259.1867,"MEAN_ANOMALY":60.3165,"EPHEMERIS_TYPE":0,"CLASSIFICATION_TYPE":"U","NORAD_CAT_ID":57976,"ELEMENT_SET_NO":999,"REV_AT_EPOCH":578,"BSTAR":-0.00032128413,"MEAN_MOTION_DOT":-9.082e-5,"MEAN_MOTION_DDOT":0},{"OBJECT_NAME":"OBJECT V","OBJECT_ID":"2025-155V","EPOCH":"2026-03-09T20:35:20.067360","MEAN_MOTION":15.27583301,"ECCENTRICITY":0.00080353,"INCLINATION":97.4485,"RA_OF_ASC_NODE":37.249,"ARG_OF_PERICENTER":152.8264,"MEAN_ANOMALY":207.3397,"EPHEMERIS_TYPE":0,"CLASSIFICATION_TYPE":"U","NORAD_CAT_ID":64895,"ELEMENT_SET_NO":999,"REV_AT_EPOCH":6557,"BSTAR":0.00051002361,"MEAN_MOTION_DOT":0.00013705,"MEAN_MOTION_DDOT":0}]
